NORAD_CAT_ID,OBJECT_NAME,OBJECT_TYPE,EPOCH,MEAN_MOTION,ECCENTRICITY,INCLINATION,RA_OF_ASC_NODE,ARG_OF_PERICENTER,MEAN_ANOMALY,BSTAR,MEAN_MOTION_DOT,MEAN_MOTION_DDOT,TLE_LINE0,TLE_LINE1,TLE_LINE2,SEMIMAJOR_AXIS,PERIOD,APOGEE,PERIGEE,DECAYED
53890.0,STARLINK-5050,PAYLOAD,2024-07-11 05:32:10,15.08852725,0.0001249,53.2158,131.402,94.2055,265.908,0.00013995,1.941e-05,0.0,0 STARLINK-5050,1 53890U 22119E   24193.23067166  .00001941  00000-0  13995-3 0  9995,2 53890  53.2158 131.4020 0001249  94.2055 265.9080 15.08852725100625,6917.841,95.437,540.571,538.842,0.0
53890.0,STARLINK-5050,PAYLOAD,2024-07-12 02:12:12,15.08833165,0.0001336,53.216,127.5408,92.3739,267.7407,8.9053e-05,1.129e-05,0.0,0 STARLINK-5050,1 53890U 22119E   24194.09180739  .00001129  00000-0  89053-4 0  9999,2 53890  53.2160 127.5408 0001336  92.3739 267.7407 15.08833165100337,6917.901,95.438,540.691,538.842,0.0
53890.0,STARLINK-5050,PAYLOAD,2024-07-12 05:22:58,15.08838853,0.0001288,53.2169,126.9441,95.7322,264.3817,3.4175e-05,2.56e-06,0.0,0 STARLINK-5050,1 53890U 22119E   24194.22428525  .00000256  00000-0  34175-4 0  9997,2 53890  53.2169 126.9441 0001288  95.7322 264.3817 15.08838853100772,6917.884,95.438,540.64,538.858,0.0
53890.0,STARLINK-5050,PAYLOAD,2024-07-12 22:52:13,15.08841423,0.0001283,53.2167,123.673,102.1418,257.9718,-8.0736e-05,-1.573e-05,0.0,0 STARLINK-5050,1 53890U 22119E   24194.95292838 -.00001573  00000-0 -80736-4 0  9992,2 53890  53.2167 123.6730 0001283 102.1418 257.9718 15.08841423100886,6917.876,95.437,540.629,538.853,0.0
53890.0,STARLINK-5050,PAYLOAD,2024-07-13 05:13:44,15.08859887,0.0001532,53.2182,122.481,84.7482,275.3685,9.4242e-05,1.213e-05,0.0,0 STARLINK-5050,1 53890U 22119E   24195.21787168  .00001213  00000-0  94242-4 0  9993,2 53890  53.2182 122.4810 0001532  84.7482 275.3685 15.08859887100501,6917.82,95.436,540.744,538.625,0.0
53890.0,STARLINK-5050,PAYLOAD,2024-07-13 22:43:00,15.08827827,0.0001335,53.217,119.2118,96.5237,263.5907,4.1471e-05,3.72e-06,0.0,0 STARLINK-5050,1 53890U 22119E   24195.94653141  .00000372  00000-0  41471-4 0  9997,2 53890  53.2170 119.2118 0001335  96.5237 263.5907 15.08827827101037,6917.918,95.438,540.706,538.859,0.0
53890.0,STARLINK-5050,PAYLOAD,2024-07-14 01:53:46,15.0883174,0.0001274,53.2166,118.6185,87.8635,272.2503,6.2053e-05,7e-06,0.0,0 STARLINK-5050,1 53890U 22119E   24196.07900975  .00000700  00000-0  62053-4 0  9996,2 53890  53.2166 118.6185 0001274  87.8635 272.2503 15.08831740100639,6917.906,95.438,540.652,538.889,0.0
53890.0,STARLINK-5050,PAYLOAD,2024-07-14 11:26:04,15.08844926,0.0001298,53.2173,116.8332,92.8732,267.2408,0.0001633,2.312e-05,0.0,0 STARLINK-5050,1 53890U 22119E   24196.47643917  .00002312  00000-0  16330-3 0  9997,2 53890  53.2173 116.8332 0001298  92.8732 267.2408 15.08844926100695,6917.865,95.437,540.628,538.832,0.0
53890.0,STARLINK-5050,PAYLOAD,2024-07-14 19:23:00,15.08837123,0.0002021,53.2171,115.3466,85.9591,274.1632,6.3195e-05,7.18e-06,0.0,0 STARLINK-5050,1 53890U 22119E   24196.80765007  .00000718  00000-0  63195-4 0  9999,2 53890  53.2171 115.3466 0002021  85.9591 274.1632 15.08837123100749,6917.889,95.438,541.152,538.356,0.0
53890.0,STARLINK-5050,PAYLOAD,2024-07-14 22:33:47,15.08830871,0.0001597,53.217,114.7519,90.7795,269.3381,-3.138e-06,-3.38e-06,0.0,0 STARLINK-5050,1 53890U 22119E   24196.94013544 -.00000338  00000-0 -31380-5 0  9998,2 53890  53.2170 114.7519 0001597  90.7795 269.3381 15.08830871101186,6917.908,95.438,540.878,538.669,0.0
53890.0,STARLINK-5050,PAYLOAD,2024-07-15 01:44:33,15.08835884,0.0001629,53.2184,114.1631,110.3042,249.8125,4.5337e-05,4.34e-06,0.0,0 STARLINK-5050,1 53890U 22119E   24197.07261187  .00000434  00000-0  45337-4 0  9992,2 53890  53.2184 114.1631 0001629 110.3042 249.8125 15.08835884101201,6917.893,95.438,540.885,538.631,0.0
53890.0,STARLINK-5050,PAYLOAD,2024-07-15 22:24:34,15.08833487,0.0001505,53.2188,110.2969,99.7958,260.3204,0.0001593,2.248e-05,0.0,0 STARLINK-5050,1 53890U 22119E   24197.93373099  .00002248  00000-0  15930-3 0  9993,2 53890  53.2188 110.2969 0001505  99.7958 260.3204 15.08833487101332,6917.9,95.438,540.806,538.724,0.0
53890.0,STARLINK-5050,PAYLOAD,2024-07-16 03:10:43,15.08837747,0.0001379,53.2153,109.3999,89.6468,270.4682,0.00013663,1.887e-05,0.0,0 STARLINK-5050,1 53890U 22119E   24198.13244963  .00001887  00000-0  13663-3 0  9992,2 53890  53.2153 109.3999 0001379  89.6468 270.4682 15.08837747100940,6917.887,95.438,540.706,538.798,0.0
53890.0,STARLINK-5050,PAYLOAD,2024-07-16 22:15:22,15.08826595,0.0001317,53.2153,105.8308,90.4968,269.6175,0.00033329,5.018e-05,0.0,0 STARLINK-5050,1 53890U 22119E   24198.92733903  .00005018  00000-0  33329-3 0  9997,2 53890  53.2153 105.8308 0001317  90.4968 269.6175 15.08826595101488,6917.921,95.438,540.697,538.875,0.0
53890.0,STARLINK-5050,PAYLOAD,2024-07-17 10:58:26,15.08843493,0.0001273,53.2157,103.4513,85.8424,274.2713,0.00015476,2.176e-05,0.0,0 STARLINK-5050,1 53890U 22119E   24199.45725000  .00002176  00000-0  15476-3 0  9990,2 53890  53.2157 103.4513 0001273  85.8424 274.2713 15.08843493101149,6917.87,95.437,540.615,538.854,0.0
53890.0,STARLINK-5050,PAYLOAD,2024-07-18 10:49:13,15.08850908,0.0001268,53.216,98.9885,100.0177,260.0959,0.00024412,3.601e-05,0.0,0 STARLINK-5050,1 53890U 22119E   24200.45085011  .00003601  00000-0  24412-3 0  9998,2 53890  53.2160  98.9885 0001268 100.0177 260.0959 15.08850908101719,6917.847,95.437,540.589,538.835,0.0
53890.0,STARLINK-5050,PAYLOAD,2024-07-18 21:56:56,15.08836065,0.000132,53.2164,96.9093,90.4471,269.6672,3.5599e-05,2.79e-06,0.0,0 STARLINK-5050,1 53890U 22119E   24200.91453907  .00000279  00000-0  35599-4 0  9999,2 53890  53.2164  96.9093 0001320  90.4471 269.6672 15.08836065101782,6917.892,95.438,540.671,538.844,0.0
53890.0,STARLINK-5050,PAYLOAD,2024-07-19 02:43:05,15.08843359,0.0001507,53.2169,96.0135,105.1814,254.9345,0.00014931,2.089e-05,0.0,0 STARLINK-5050,1 53890U 22119E   24201.11325566  .00002089  00000-0  14931-3 0  9998,2 53890  53.2169  96.0135 0001507 105.1814 254.9345 15.08843359101392,6917.87,95.437,540.778,538.693,0.0
53890.0,STARLINK-5050,PAYLOAD,2024-07-19 10:40:00,15.08850868,0.000149,53.2169,94.5283,119.3539,240.7602,0.00024613,3.633e-05,0.0,0 STARLINK-5050,1 53890U 22119E   24201.44445092  .00003633  00000-0  24613-3 0  9995,2 53890  53.2169  94.5283 0001490 119.3539 240.7602 15.08850868101865,6917.847,95.437,540.743,538.681,0.0
53890.0,STARLINK-5050,PAYLOAD,2024-07-19 23:23:06,15.08836246,0.000136,53.2163,92.1518,102.119,257.9954,0.00017822,2.549e-05,0.0,0 STARLINK-5050,1 53890U 22119E   24201.97438031  .00002549  00000-0  17822-3 0  9997,2 53890  53.2163  92.1518 0001360 102.1190 257.9954 15.08836246101946,6917.892,95.438,540.698,538.816,0.0
53890.0,STARLINK-5050,PAYLOAD,2024-07-20 02:33:52,15.08840583,0.0001627,53.2164,91.5564,104.9043,255.213,5.9656e-05,6.62e-06,0.0,0 STARLINK-5050,1 53890U 22119E   24202.10685678  .00000662  00000-0  59656-4 0  9990,2 53890  53.2164  91.5564 0001627 104.9043 255.2130 15.08840583101546,6917.879,95.438,540.869,538.618,0.0
53890.0,STARLINK-5050,PAYLOAD,2024-07-20 23:13:53,15.08842474,0.0001322,53.217,87.6897,97.7807,262.3335,0.00018822,2.709e-05,0.0,0 STARLINK-5050,1 53890U 22119E   24202.96797868  .00002709  00000-0  18822-3 0  9992,2 53890  53.2170  87.6897 0001322  97.7807 262.3335 15.08842474102095,6917.873,95.437,540.652,538.823,0.0
53890.0,STARLINK-5050,PAYLOAD,2024-07-21 19:53:54,15.08837139,0.0001374,53.2165,83.8244,88.1806,271.9343,0.00013545,1.868e-05,0.0,0 STARLINK-5050,1 53890U 22119E   24203.82910344  .00001868  00000-0  13545-3 0  9996,2 53890  53.2165  83.8244 0001374  88.1806 271.9343 15.08837139101808,6917.889,95.438,540.705,538.804,0.0
53890.0,STARLINK-5050,PAYLOAD,2024-07-21 21:29:17,15.0883722,0.0001361,53.2159,83.527,87.5732,272.5416,0.00012551,1.71e-05,0.0,0 STARLINK-5050,1 53890U 22119E   24203.89534331  .00001710  00000-0  12551-3 0  9993,2 53890  53.2159  83.5270 0001361  87.5732 272.5416 15.08837220102231,6917.889,95.438,540.695,538.812,0.0
53890.0,STARLINK-5050,PAYLOAD,2024-07-21 23:04:40,15.08840153,0.0001377,53.2157,83.2312,102.6265,257.4881,0.00011104,1.48e-05,0.0,0 STARLINK-5050,1 53890U 22119E   24203.96158182  .00001480  00000-0  11104-3 0  9994,2 53890  53.2157  83.2312 0001377 102.6265 257.4881 15.08840153102248,6917.88,95.438,540.698,538.792,0.0
53890.0,STARLINK-5050,PAYLOAD,2024-07-23 08:27:45,15.08851767,0.0001288,53.2158,76.9867,82.5026,277.6112,0.00024843,3.669e-05,0.0,0 STARLINK-5050,1 53890U 22119E   24205.35261384  .00003669  00000-0  24843-3 0  9993,2 53890  53.2158  76.9867 0001288  82.5026 277.6112 15.08851767102036,6917.844,95.437,540.6,538.818,0.0
53890.0,STARLINK-5050,PAYLOAD,2024-07-23 22:46:15,15.08823272,0.0001534,53.2166,74.3178,113.878,246.2373,-0.00018132,-3.171e-05,0.0,0 STARLINK-5050,1 53890U 22119E   24205.94878852 -.00003171  00000-0 -18132-3 0  9996,2 53890  53.2166  74.3178 0001534 113.8780 246.2373 15.08823272102548,6917.932,95.439,540.858,538.735,0.0
53890.0,STARLINK-5050,PAYLOAD,2024-07-24 00:21:38,15.0882811,0.0001497,53.2168,74.0132,98.7561,261.36,-5.6719e-05,-1.19e-05,0.0,0 STARLINK-5050,1 53890U 22119E   24206.01503199 -.00001190  00000-0 -56719-4 0  9997,2 53890  53.2168  74.0132 0001497  98.7561 261.3600 15.08828110102135,6917.917,95.438,540.817,538.746,0.0
53890.0,STARLINK-5050,PAYLOAD,2024-07-24 14:40:07,15.08824266,0.0001483,53.2176,71.3383,94.3309,265.7853,-8.9707e-05,-1.715e-05,0.0,0 STARLINK-5050,1 53890U 22119E   24206.61120082 -.00001715  00000-0 -89707-4 0  9995,2 53890  53.2176  71.3383 0001483  94.3309 265.7853 15.08824266102641,6917.928,95.439,540.819,538.768,0.0
53890.0,STARLINK-5050,PAYLOAD,2024-07-24 22:37:01,15.08831511,0.0001332,53.2165,69.8509,101.9309,258.1833,0.00024158,3.558e-05,0.0,0 STARLINK-5050,1 53890U 22119E   24206.94237975  .00003558  00000-0  24158-3 0  9994,2 53890  53.2165  69.8509 0001332 101.9309 258.1833 15.08831511102699,6917.906,95.438,540.693,538.85,0.0
